sat20306
1 20306U 89086B   20046.74742720 -.00000212  00000-0 -59015-3 0  9997
2 20306  82.5548 131.6008 0015229 285.2643 190.6458 13.16228958456051
